[{"OBJECT_NAME":"ORBITER SN3","OBJECT_ID":"2023-084AE","EPOCH":"2026-03-09T23:12:21.976128","MEAN_MOTION":15.32943891,"ECCENTRICITY":0.00075889,"INCLINATION":97.61,"RA_OF_ASC_NODE":206.6768,"ARG_OF_PERICENTER":331.7947,"MEAN_ANOMALY":28.2883,"EPHEMERIS_TYPE":0,"CLASSIFICATION_TYPE":"U","NORAD_CAT_ID":56960,"ELEMENT_SET_NO":999,"REV_AT_EPOCH":15228,"BSTAR":0.00032835432,"MEAN_MOTION_DOT":0.00010378,"MEAN_MOTION_DDOT":0},{"OBJECT_NAME":"STARLINK-31991","OBJECT_ID":"2024-107U","EPOCH":"2026-03-09T09:48:09.988416","MEAN_MOTION":15.3022442,"ECCENTRICITY":0.00012719,"INCLINATION":53.1591,"RA_OF_ASC_NODE":66.8176,"ARG_OF_PERICENTER":93.8588,"MEAN_ANOMALY":266.2558,"EPHEMERIS_TYPE":0,"CLASSIFICATION_TYPE":"U","NORAD_CAT_ID":59963,"ELEMENT_SET_NO":999,"REV_AT_EPOCH":9975,"BSTAR":0.00028843686,"MEAN_MOTION_DOT":8.199e-5,"MEAN_MOTION_DDOT":0}]
